{"type": "FeatureCollection", "features": [ {"type": "Feature", "properties": {"norad_id": 66574, "name": "STARLINK-35812", "group": "last-30-days", "lat": -38.09826278841441, "lon": 5.951062681466768, "alt_km": 406.05250395888015, "timestamp": "2025-12-22T14:45:56.095238+00:00", "meta": {"OBJECT_NAME": "STARLINK-35812", "OBJECT_ID": "2025-268T", "EPOCH": "2025-12-22T06:00:02.000160", "MEAN_MOTION": 15.56142986, "ECCENTRICITY": 0.00013887, "INCLINATION": 43.0002, "RA_OF_ASC_NODE": 65.3901, "ARG_OF_PERICENTER": 259.2078, "MEAN_ANOMALY": 148.6846, "EPHEMERIS_TYPE": 0, "CLASSIFICATION_TYPE": "U", "NORAD_CAT_ID": 66574, "ELEMENT_SET_NO": 999, "REV_AT_EPOCH": 609, "BSTAR": -0.032716658, "MEAN_MOTION_DOT": -0.02091755, "MEAN_MOTION_DDOT": 0}, "tle": {"line1": "1 66574U 25268T   25356.25002315 -.02091755  00000+0 -32717-1 0  9991", "line2": "2 66574  43.0002  65.3901 0001388 259.2078 148.6846 15.56142986  6095"}}, "geometry": {"type": "Point", "coordinates": [5.951062681466768, -38.09826278841441]}}, {"type": "Feature", "properties": {"norad_id": 66575, "name": "STARLINK-35810", "group": "last-30-days", "lat": -36.97391417536884, "lon": 9.341421009460136, "alt_km": 403.5161374526606, "timestamp": "2025-12-22T14:45:56.095248+00:00", "meta": {"OBJECT_NAME": "STARLINK-35810", "OBJECT_ID": "2025-268U", "EPOCH": "2025-12-22T06:00:02.000160", "MEAN_MOTION": 15.5678517, "ECCENTRICITY": 0.00015484, "INCLINATION": 43.0006, "RA_OF_ASC_NODE": 65.3856, "ARG_OF_PERICENTER": 253.5738, "MEAN_ANOMALY": 156.2437, "EPHEMERIS_TYPE": 0, "CLASSIFICATION_TYPE": "U", "NORAD_CAT_ID": 66575, "ELEMENT_SET_NO": 999, "REV_AT_EPOCH": 609, "BSTAR": -0.027582171, "MEAN_MOTION_DOT": -0.01803498, "MEAN_MOTION_DDOT": 0}, "tle": {"line1": "1 66575U 25268U   25356.25002315 -.01803498  00000+0 -27582-1 0  9990", "line2": "2 66575  43.0006  65.3856 0001548 253.5738 156.2437 15.56785170  6096"}}, "geometry": {"type": "Point", "coordinates": [9.341421009460136, -36.97391417536884]}}, {"type": "Feature", "properties": {"norad_id": 66576, "name": "STARLINK-35814", "group": "last-30-days", "lat": -36.00088509328996, "lon": 11.992714282724759, "alt_km": 401.07568291752705, "timestamp": "2025-12-22T14:45:56.095259+00:00", "meta": {"OBJECT_NAME": "STARLINK-35814", "OBJECT_ID": "2025-268V", "EPOCH": "2025-12-22T06:00:02.000160", "MEAN_MOTION": 15.56639569, "ECCENTRICITY": 0.00016724, "INCLINATION": 43.0004, "RA_OF_ASC_NODE": 65.3809, "ARG_OF_PERICENTER": 254.2319, "MEAN_ANOMALY": 157.5014, "EPHEMERIS_TYPE": 0, "CLASSIFICATION_TYPE": "U", "NORAD_CAT_ID": 66576, "ELEMENT_SET_NO": 999, "REV_AT_EPOCH": 609, "BSTAR": -0.0094326139, "MEAN_MOTION_DOT": -0.00637855, "MEAN_MOTION_DDOT": 0}, "tle": {"line1": "1 66576U 25268V   25356.25002315 -.00637855  00000+0 -94326-2 0  9993", "line2": "2 66576  43.0004  65.3809 0001672 254.2319 157.5014 15.56639569  6099"}}, "geometry": {"type": "Point", "coordinates": [11.992714282724759, -36.00088509328996]}}, {"type": "Feature", "properties": {"norad_id": 66577, "name": "STARLINK-35815", "group": "last-30-days", "lat": -35.133331182381646, "lon": 14.183665702818509, "alt_km": 400.2822817391443, "timestamp": "2025-12-22T14:45:56.095269+00:00", "meta": {"OBJECT_NAME": "STARLINK-35815", "OBJECT_ID": "2025-268W", "EPOCH": "2025-12-22T06:00:02.000160", "MEAN_MOTION": 15.56435134, "ECCENTRICITY": 0.00015319, "INCLINATION": 43.0004, "RA_OF_ASC_NODE": 65.3766, "ARG_OF_PERICENTER": 261.872, "MEAN_ANOMALY": 151.8183, "EPHEMERIS_TYPE": 0, "CLASSIFICATION_TYPE": "U", "NORAD_CAT_ID": 66577, "ELEMENT_SET_NO": 999, "REV_AT_EPOCH": 609, "BSTAR": -0.00073124479, "MEAN_MOTION_DOT": -0.0005311, "MEAN_MOTION_DDOT": 0}, "tle": {"line1": "1 66577U 25268W   25356.25002315 -.00053110  00000+0 -73124-3 0  9994", "line2": "2 66577  43.0004  65.3766 0001531 261.8720 151.8183 15.56435134  6092"}}, "geometry": {"type": "Point", "coordinates": [14.183665702818509, -35.133331182381646]}}, {"type": "Feature", "properties": {"norad_id": 66578, "name": "STARLINK-35743", "group": "last-30-days", "lat": -34.26362342632471, "lon": 16.24300466724719, "alt_km": 400.2690351316278, "timestamp": "2025-12-22T14:45:56.095280+00:00", "meta": {"OBJECT_NAME": "STARLINK-35743", "OBJECT_ID": "2025-268X", "EPOCH": "2025-12-22T06:00:02.000160", "MEAN_MOTION": 15.5646252, "ECCENTRICITY": 0.00016656, "INCLINATION": 43.0005, "RA_OF_ASC_NODE": 65.3718, "ARG_OF_PERICENTER": 263.0032, "MEAN_ANOMALY": 152.599, "EPHEMERIS_TYPE": 0, "CLASSIFICATION_TYPE": "U", "NORAD_CAT_ID": 66578, "ELEMENT_SET_NO": 999, "REV_AT_EPOCH": 609, "BSTAR": -0.0018760407, "MEAN_MOTION_DOT": -0.00134449, "MEAN_MOTION_DDOT": 0}, "tle": {"line1": "1 66578U 25268X   25356.25002315 -.00134449  00000+0 -18760-2 0  9994", "line2": "2 66578  43.0005  65.3718 0001665 263.0032 152.5990 15.56462520  6092"}}, "geometry": {"type": "Point", "coordinates": [16.24300466724719, -34.26362342632471]}}, {"type": "Feature", "properties": {"norad_id": 66579, "name": "STARLINK-35868", "group": "last-30-days", "lat": -33.35352190090317, "lon": 18.27259489506242, "alt_km": 400.25362806336216, "timestamp": "2025-12-22T14:45:56.095291+00:00", "meta": {"OBJECT_NAME": "STARLINK-35868", "OBJECT_ID": "2025-268Y", "EPOCH": "2025-12-22T06:00:02.000160", "MEAN_MOTION": 15.56470701, "ECCENTRICITY": 0.00016744, "INCLINATION": 43.0004, "RA_OF_ASC_NODE": 65.3666, "ARG_OF_PERICENTER": 261.793, "MEAN_ANOMALY": 155.7253, "EPHEMERIS_TYPE": 0, "CLASSIFICATION_TYPE": "U", "NORAD_CAT_ID": 66579, "ELEMENT_SET_NO": 999, "REV_AT_EPOCH": 609, "BSTAR": -0.0020277509, "MEAN_MOTION_DOT": -0.00145143, "MEAN_MOTION_DDOT": 0}, "tle": {"line1": "1 66579U 25268Y   25356.25002315 -.00145143  00000+0 -20278-2 0  9995", "line2": "2 66579  43.0004  65.3666 0001674 261.7930 155.7253 15.56470701  6093"}}, "geometry": {"type": "Point", "coordinates": [18.27259489506242, -33.35352190090317]}}, {"type": "Feature", "properties": {"norad_id": 66580, "name": "STARLINK-35872", "group": "last-30-days", "lat": -32.41198754460429, "lon": 20.258832898109365, "alt_km": 400.22044503463076, "timestamp": "2025-12-22T14:45:56.095301+00:00", "meta": {"OBJECT_NAME": "STARLINK-35872", "OBJECT_ID": "2025-268Z", "EPOCH": "2025-12-22T06:00:02.000160", "MEAN_MOTION": 15.56487264, "ECCENTRICITY": 0.00015899, "INCLINATION": 43.0006, "RA_OF_ASC_NODE": 65.3625, "ARG_OF_PERICENTER": 266.1575, "MEAN_ANOMALY": 153.274, "EPHEMERIS_TYPE": 0, "CLASSIFICATION_TYPE": "U", "NORAD_CAT_ID": 66580, "ELEMENT_SET_NO": 999, "REV_AT_EPOCH": 609, "BSTAR": -0.0024022027, "MEAN_MOTION_DOT": -0.00171421, "MEAN_MOTION_DDOT": 0}, "tle": {"line1": "1 66580U 25268Z   25356.25002315 -.00171421  00000+0 -24022-2 0  9996", "line2": "2 66580  43.0006  65.3625 0001589 266.1575 153.2740 15.56487264  6097"}}, "geometry": {"type": "Point", "coordinates": [20.258832898109365, -32.41198754460429]}}, {"type": "Feature", "properties": {"norad_id": 66581, "name": "STARLINK-35744", "group": "last-30-days", "lat": -31.4430156875299, "lon": 22.194575782589276, "alt_km": 400.17794397988473, "timestamp": "2025-12-22T14:45:56.095327+00:00", "meta": {"OBJECT_NAME": "STARLINK-35744", "OBJECT_ID": "2025-268AA", "EPOCH": "2025-12-22T06:00:02.000160", "MEAN_MOTION": 15.56474138, "ECCENTRICITY": 0.0001607, "INCLINATION": 43.0004, "RA_OF_ASC_NODE": 65.3566, "ARG_OF_PERICENTER": 265.3852, "MEAN_ANOMALY": 155.966, "EPHEMERIS_TYPE": 0, "CLASSIFICATION_TYPE": "U", "NORAD_CAT_ID": 66581, "ELEMENT_SET_NO": 999, "REV_AT_EPOCH": 609, "BSTAR": -0.0020960463, "MEAN_MOTION_DOT": -0.00149948, "MEAN_MOTION_DDOT": 0}, "tle": {"line1": "1 66581U 25268AA  25356.25002315 -.00149948  00000+0 -20960-2 0  9993", "line2": "2 66581  43.0004  65.3566 0001607 265.3852 155.9660 15.56474138  6096"}}, "geometry": {"type": "Point", "coordinates": [22.194575782589276, -31.4430156875299]}}, {"type": "Feature", "properties": {"norad_id": 66582, "name": "STARLINK-35746", "group": "last-30-days", "lat": -30.44840231848051, "lon": 24.086443590053563, "alt_km": 400.39427108964446, "timestamp": "2025-12-22T14:45:56.095339+00:00", "meta": {"OBJECT_NAME": "STARLINK-35746", "OBJECT_ID": "2025-268AB", "EPOCH": "2025-12-22T06:00:02.000160", "MEAN_MOTION": 15.56426882, "ECCENTRICITY": 0.00014318, "INCLINATION": 43.0005, "RA_OF_ASC_NODE": 65.3522, "ARG_OF_PERICENTER": 254.8509, "MEAN_ANOMALY": 168.4457, "EPHEMERIS_TYPE": 0, "CLASSIFICATION_TYPE": "U", "NORAD_CAT_ID": 66582, "ELEMENT_SET_NO": 999, "REV_AT_EPOCH": 609, "BSTAR": -0.0013982776, "MEAN_MOTION_DOT": -0.00100591, "MEAN_MOTION_DDOT": 0}, "tle": {"line1": "1 66582U 25268AB  25356.25002315 -.00100591  00000+0 -13983-2 0  9992", "line2": "2 66582  43.0005  65.3522 0001431 254.8509 168.4457 15.56426882  6093"}}, "geometry": {"type": "Point", "coordinates": [24.086443590053563, -30.44840231848051]}}, {"type": "Feature", "properties": {"norad_id": 66583, "name": "STARLINK-35941", "group": "last-30-days", "lat": -29.41533247031584, "lon": 25.959400245244687, "alt_km": 399.9977444193846, "timestamp": "2025-12-22T14:45:56.095349+00:00", "meta": {"OBJECT_NAME": "STARLINK-35941", "OBJECT_ID": "2025-268AC", "EPOCH": "2025-12-22T06:00:02.000160", "MEAN_MOTION": 15.56484151, "ECCENTRICITY": 0.00016644, "INCLINATION": 43.0006, "RA_OF_ASC_NODE": 65.3473, "ARG_OF_PERICENTER": 271.5159, "MEAN_ANOMALY": 153.6687, "EPHEMERIS_TYPE": 0, "CLASSIFICATION_TYPE": "U", "NORAD_CAT_ID": 66583, "ELEMENT_SET_NO": 999, "REV_AT_EPOCH": 609, "BSTAR": -0.0023320228, "MEAN_MOTION_DOT": -0.00166508, "MEAN_MOTION_DDOT": 0}, "tle": {"line1": "1 66583U 25268AC  25356.25002315 -.00166508  00000+0 -23320-2 0  9999", "line2": "2 66583  43.0006  65.3473 0001664 271.5159 153.6687 15.56484151  6099"}}, "geometry": {"type": "Point", "coordinates": [25.959400245244687, -29.41533247031584]}}]}